NORAD_CAT_ID,OBJECT_NAME,OBJECT_TYPE,EPOCH,MEAN_MOTION,ECCENTRICITY,INCLINATION,RA_OF_ASC_NODE,ARG_OF_PERICENTER,MEAN_ANOMALY,BSTAR,MEAN_MOTION_DOT,MEAN_MOTION_DDOT,TLE_LINE0,TLE_LINE1,TLE_LINE2,SEMIMAJOR_AXIS,PERIOD,APOGEE,PERIGEE,DECAYED
56473.0,STARLINK-5486,PAYLOAD,2023-11-01 20:31:47,14.98300712,0.0002913,69.999,129.9059,274.2964,85.7862,0.00044691,5.239e-05,0.0,0 STARLINK-5486,1 56473U 23064AB  23305.85541338  .00005239  00000-0  44691-3 0  9996,2 56473  69.9990 129.9059 0002913 274.2964  85.7862 14.98300712 27452,6950.283,96.109,574.173,570.124,0.0
56473.0,STARLINK-5486,PAYLOAD,2023-11-01 22:07:56,14.98289249,0.000285,69.9987,129.7374,273.0502,87.0331,0.0006582,7.761e-05,0.0,0 STARLINK-5486,1 56473U 23064AB  23305.92217665  .00007761  00000-0  65820-3 0  9996,2 56473  69.9987 129.7374 0002850 273.0502  87.0331 14.98289249 27100,6950.319,96.11,574.165,570.203,0.0
56473.0,STARLINK-5486,PAYLOAD,2023-11-02 12:33:07,14.9833083,0.0003013,69.9987,128.2222,270.7167,89.3647,1.1514e-05,4.4e-07,0.0,0 STARLINK-5486,1 56473U 23064AB  23306.52300384  .00000044  00000-0  11514-4 0  9993,2 56473  69.9987 128.2222 0003013 270.7167  89.3647 14.98330830 27556,6950.19,96.107,574.149,569.961,0.0
56473.0,STARLINK-5486,PAYLOAD,2023-11-02 14:09:15,14.98330655,0.0003016,69.9987,128.0539,270.7217,89.3596,9.4407e-06,2e-07,0.0,0 STARLINK-5486,1 56473U 23064AB  23306.58976393  .00000020  00000-0  94407-5 0  9995,2 56473  69.9987 128.0539 0003016 270.7217  89.3596 14.98330655 27204,6950.191,96.107,574.152,569.96,0.0
56473.0,STARLINK-5486,PAYLOAD,2023-11-02 20:33:47,14.98332235,0.0003028,69.9987,127.3806,270.9956,89.0856,-9.9966e-07,-1.05e-06,0.0,0 STARLINK-5486,1 56473U 23064AB  23306.85680298 -.00000105  00000-0 -99966-6 0  9993,2 56473  69.9987 127.3806 0003028 270.9956  89.0856 14.98332235 27244,6950.186,96.107,574.155,569.946,0.0
56473.0,STARLINK-5486,PAYLOAD,2023-11-03 14:11:16,14.98329675,0.0003073,69.998,125.5289,271.1476,88.9331,1.5547e-05,9.2e-07,0.0,0 STARLINK-5486,1 56473U 23064AB  23307.59116367  .00000092  00000-0  15547-4 0  9990,2 56473  69.9980 125.5289 0003073 271.1476  88.9331 14.98329675 27354,6950.194,96.107,574.195,569.923,0.0
56473.0,STARLINK-5486,PAYLOAD,2023-11-03 18:59:40,14.98330586,0.0003073,69.9981,125.0238,271.1007,88.98,2.4632e-05,2.01e-06,0.0,0 STARLINK-5486,1 56473U 23064AB  23307.79144275  .00000201  00000-0  24632-4 0  9998,2 56473  69.9981 125.0238 0003073 271.1007  88.9800 14.98330586 27741,6950.191,96.107,574.192,569.92,0.0
56473.0,STARLINK-5486,PAYLOAD,2023-11-03 22:11:56,14.98333909,0.0003014,69.9981,124.6871,269.431,90.6504,-9.2053e-06,-2.03e-06,0.0,0 STARLINK-5486,1 56473U 23064AB  23307.92496135 -.00000203  00000-0 -92053-5 0  9995,2 56473  69.9981 124.6871 0003014 269.4310  90.6504 14.98333909 27407,6950.181,96.107,574.141,569.951,0.0
56473.0,STARLINK-5486,PAYLOAD,2023-11-04 04:36:29,14.98300315,0.0002939,69.9981,124.0138,266.4866,93.5957,0.00048203,5.659e-05,0.0,0 STARLINK-5486,1 56473U 23064AB  23308.19201217  .00005659  00000-0  48203-3 0  9994,2 56473  69.9981 124.0138 0002939 266.4866  93.5957 14.98300315 27808,6950.285,96.109,574.192,570.107,0.0
56473.0,STARLINK-5486,PAYLOAD,2023-11-04 11:01:01,14.9832665,0.000305,69.9981,123.3405,271.0335,89.0474,-3.8468e-05,-5.52e-06,0.0,0 STARLINK-5486,1 56473U 23064AB  23308.45904693 -.00000552  00000-0 -38468-4 0  9993,2 56473  69.9981 123.3405 0003050 271.0335  89.0474 14.98326650 27843,6950.203,96.107,574.188,569.948,0.0
56473.0,STARLINK-5486,PAYLOAD,2023-11-04 14:13:17,14.98327101,0.000305,69.9981,123.0038,270.9982,89.0827,-3.2757e-05,-4.84e-06,0.0,0 STARLINK-5486,1 56473U 23064AB  23308.59256663 -.00000484  00000-0 -32757-4 0  9994,2 56473  69.9981 123.0038 0003050 270.9982  89.0827 14.98327101 27505,6950.202,96.107,574.187,569.947,0.0
56473.0,STARLINK-5486,PAYLOAD,2023-11-04 20:37:49,14.98329092,0.0002942,69.9981,122.3304,269.6177,90.4645,-2.4548e-05,-3.86e-06,0.0,0 STARLINK-5486,1 56473U 23064AB  23308.85960537 -.00000386  00000-0 -24548-4 0  9995,2 56473  69.9981 122.3304 0002942 269.6177  90.4645 14.98329092 27542,6950.196,96.107,574.105,570.016,0.0
56473.0,STARLINK-5486,PAYLOAD,2023-11-05 11:03:02,14.98330508,0.0003016,69.9982,120.8156,270.6865,89.3949,6.3853e-05,6.69e-06,0.0,0 STARLINK-5486,1 56473U 23064AB  23309.46044183  .00000669  00000-0  63853-4 0  9997,2 56473  69.9982 120.8156 0003016 270.6865  89.3949 14.98330508 27997,6950.191,96.107,574.152,569.96,0.0
56473.0,STARLINK-5486,PAYLOAD,2023-11-05 14:15:18,14.98331803,0.0003148,69.9982,120.4789,266.427,93.6529,7.3673e-05,7.86e-06,0.0,0 STARLINK-5486,1 56473U 23064AB  23309.59395974  .00000786  00000-0  73673-4 0  9999,2 56473  69.9982 120.4789 0003148 266.4270  93.6529 14.98331803 27658,6950.187,96.107,574.24,569.864,0.0
56473.0,STARLINK-5486,PAYLOAD,2023-11-05 20:39:50,14.98336724,0.0002973,69.9981,119.8053,271.7155,88.3664,6.3753e-05,6.68e-06,0.0,0 STARLINK-5486,1 56473U 23064AB  23309.86099661  .00000668  00000-0  63753-4 0  9990,2 56473  69.9981 119.8053 0002973 271.7155  88.3664 14.98336724 27691,6950.172,96.107,574.103,569.971,0.0
56473.0,STARLINK-5486,PAYLOAD,2023-11-06 11:05:02,14.98333555,0.0002711,69.9981,118.2907,272.2824,87.8025,4.8973e-05,4.91e-06,0.0,0 STARLINK-5486,1 56473U 23064AB  23310.46183771  .00000491  00000-0  48973-4 0  9995,2 56473  69.9981 118.2907 0002711 272.2824  87.8025 14.98333555 28146,6950.182,96.107,573.931,570.163,0.0
56473.0,STARLINK-5486,PAYLOAD,2023-11-06 14:17:18,14.98332075,0.0002879,69.9982,117.9537,270.966,89.1169,4.7987e-05,4.8e-06,0.0,0 STARLINK-5486,1 56473U 23064AB  23310.59535779  .00000480  00000-0  47987-4 0  9990,2 56473  69.9982 117.9537 0002879 270.9660  89.1169 14.98332075 27802,6950.186,96.107,574.052,570.051,0.0
56473.0,STARLINK-5486,PAYLOAD,2023-11-06 20:41:51,14.98331981,0.0002967,69.9986,117.2813,271.1467,88.9352,3.3597e-05,3.08e-06,0.0,0 STARLINK-5486,1 56473U 23064AB  23310.86239768  .00000308  00000-0  33597-4 0  9990,2 56473  69.9986 117.2813 0002967 271.1467  88.9352 14.98331981 27842,6950.187,96.107,574.114,569.99,0.0
56473.0,STARLINK-5486,PAYLOAD,2023-11-07 11:07:04,14.98327198,0.0002831,69.9988,115.7664,270.6734,89.41,-0.00012166,-1.544e-05,0.0,0 STARLINK-5486,1 56473U 23064AB  23311.46324534 -.00001544  00000-0 -12166-3 0  9996,2 56473  69.9988 115.7664 0002831 270.6734  89.4100 14.98327198 28294,6950.202,96.107,574.034,570.099,0.0
56473.0,STARLINK-5486,PAYLOAD,2023-11-07 14:19:20,14.98326229,0.0002859,69.999,115.4297,270.282,89.8011,-0.00012198,-1.548e-05,0.0,0 STARLINK-5486,1 56473U 23064AB  23311.59676596 -.00001548  00000-0 -12198-3 0  9997,2 56473  69.9990 115.4297 0002859 270.2820  89.8011 14.98326229 27959,6950.205,96.107,574.057,570.082,0.0
56473.0,STARLINK-5486,PAYLOAD,2023-11-08 11:09:05,14.98325958,0.0003246,69.9987,113.2415,269.9773,90.1014,-3.0627e-05,-4.58e-06,0.0,0 STARLINK-5486,1 56473U 23064AB  23312.46464463 -.00000458  00000-0 -30627-4 0  9999,2 56473  69.9987 113.2415 0003246 269.9773  90.1014 14.98325958 28447,6950.205,96.107,574.326,569.814,0.0
56473.0,STARLINK-5486,PAYLOAD,2023-11-08 14:21:21,14.98326834,0.0003246,69.9987,112.9048,269.8678,90.2109,-1.6487e-05,-2.9e-06,0.0,0 STARLINK-5486,1 56473U 23064AB  23312.59816397 -.00000290  00000-0 -16487-4 0  9992,2 56473  69.9987 112.9048 0003246 269.8678  90.2109 14.98326834 28101,6950.203,96.107,574.324,569.812,0.0
56473.0,STARLINK-5486,PAYLOAD,2023-11-08 20:45:53,14.98331123,0.0003199,69.9987,112.2311,269.1021,90.9771,1.6203e-05,1e-06,0.0,0 STARLINK-5486,1 56473U 23064AB  23312.86520064  .00000100  00000-0  16203-4 0  9999,2 56473  69.9987 112.2311 0003199 269.1021  90.9771 14.98331123 28142,6950.189,96.107,574.278,569.831,0.0
56473.0,STARLINK-5486,PAYLOAD,2023-11-09 12:47:13,14.98336138,0.0003148,70.0,110.5498,265.4628,94.6171,0.00019741,2.264e-05,0.0,0 STARLINK-5486,1 56473U 23064AB  23313.53279037  .00002264  00000-0  19741-3 0  9997,2 56473  70.0000 110.5498 0003148 265.4628  94.6171 14.98336138 28601,6950.174,96.107,574.227,569.851,0.0
56473.0,STARLINK-5486,PAYLOAD,2023-11-09 14:23:20,14.98343206,0.000292,70.0014,110.3857,254.985,105.0986,0.00025357,2.935e-05,0.0,0 STARLINK-5486,1 56473U 23064AB  23313.59954375  .00002935  00000-0  25357-3 0  9993,2 56473  70.0014 110.3857 0002920 254.9850 105.0986 14.98343206 28256,6950.152,96.106,574.046,569.988,0.0
56473.0,STARLINK-5486,PAYLOAD,2023-11-09 15:59:28,14.98345839,0.0003206,69.9992,110.2135,265.6016,94.4777,0.00027116,3.145e-05,0.0,0 STARLINK-5486,1 56473U 23064AB  23313.66630180  .00003145  00000-0  27116-3 0  9995,2 56473  69.9992 110.2135 0003206 265.6016  94.4777 14.98345839 28621,6950.144,96.106,574.237,569.781,0.0
56473.0,STARLINK-5486,PAYLOAD,2023-11-09 20:47:52,14.9834684,0.0003256,69.9989,109.7066,267.3227,92.756,0.0002695,3.125e-05,0.0,0 STARLINK-5486,1 56473U 23064AB  23313.86657911  .00003125  00000-0  26950-3 0  9991,2 56473  69.9989 109.7066 0003256 267.3227  92.7560 14.98346840 28298,6950.141,96.106,574.269,569.743,0.0
56473.0,STARLINK-5486,PAYLOAD,2023-11-10 03:12:25,14.98332418,0.000347,69.9991,109.0342,266.8831,93.1931,8.6853e-05,9.43e-06,0.0,0 STARLINK-5486,1 56473U 23064AB  23314.13363047  .00000943  00000-0  86853-4 0  9990,2 56473  69.9991 109.0342 0003470 266.8831  93.1931 14.98332418 28691,6950.185,96.107,574.462,569.639,0.0
56473.0,STARLINK-5486,PAYLOAD,2023-11-10 11:13:07,14.98318381,0.0003054,69.9988,108.1908,270.2514,89.8295,-0.00016996,-2.12e-05,0.0,0 STARLINK-5486,1 56473U 23064AB  23314.46744833 -.00002120  00000-0 -16996-3 0  9993,2 56473  69.9988 108.1908 0003054 270.2514  89.8295 14.98318381 28744,6950.229,96.108,574.216,569.971,0.0
56473.0,STARLINK-5486,PAYLOAD,2023-11-10 14:25:23,14.98317856,0.0003064,69.9989,107.8545,269.5053,90.5755,-0.00015205,-1.906e-05,0.0,0 STARLINK-5486,1 56473U 23064AB  23314.60096886 -.00001906  00000-0 -15205-3 0  9990,2 56473  69.9989 107.8545 0003064 269.5053  90.5755 14.98317856 28407,6950.23,96.108,574.225,569.966,0.0
